{
  "links" : {
    "next" : "https://api.nasa.gov/neo/rest/v1/feed?start_date=2015-08-09&end_date=2015-08-09&detailed=true&api_key=t0TVs3DtDT2H8Oy2Zy8m2eVrNsAVKAexjcZXUckd",
    "prev" : "https://api.nasa.gov/neo/rest/v1/feed?start_date=2015-08-07&end_date=2015-08-07&detailed=true&api_key=t0TVs3DtDT2H8Oy2Zy8m2eVrNsAVKAexjcZXUckd",
    "self" : "https://api.nasa.gov/neo/rest/v1/feed?start_date=2015-08-08&end_date=2015-08-08&detailed=true&api_key=t0TVs3DtDT2H8Oy2Zy8m2eVrNsAVKAexjcZXUckd"
  },
  "element_count" : 8,
  "near_earth_objects" : {
    "2015-08-08" : [ {
      "links" : {
        "self" : "https://api.nasa.gov/neo/rest/v1/neo/3725153?api_key=t0TVs3DtDT2H8Oy2Zy8m2eVrNsAVKAexjcZXUckd"
      },
      "neo_reference_id" : "3725153",
      "name" : "(2015 PL9)",
      "nasa_jpl_url" : "http://ssd.jpl.nasa.gov/sbdb.cgi?sstr=3725153",
      "absolute_magnitude_h" : 27.0,
      "estimated_diameter" : {
        "kilometers" : {
          "estimated_diameter_min" : 0.0105816886,
          "estimated_diameter_max" : 0.023661375
        },
        "meters" : {
          "estimated_diameter_min" : 10.5816885933,
          "estimated_diameter_max" : 23.6613750114
        },
        "miles" : {
          "estimated_diameter_min" : 0.0065751544,
          "estimated_diameter_max" : 0.0147024923
        },
        "feet" : {
          "estimated_diameter_min" : 34.7168272045,
          "estimated_diameter_max" : 77.6291855923
        }
      },
      "is_potentially_hazardous_asteroid" : false,
      "close_approach_data" : [ {
        "close_approach_date" : "2015-08-08",
        "epoch_date_close_approach" : 1439017200000,
        "relative_velocity" : {
          "kilometers_per_second" : "11.2350272721",
          "kilometers_per_hour" : "40446.0981793868",
          "miles_per_hour" : "25131.6325048529"
        },
        "miss_distance" : {
          "astronomical" : "0.0031763595",
          "lunar" : "1.2356038094",
          "kilometers" : "475176.625",
          "miles" : "295261.0625"
        },
        "orbiting_body" : "Earth"
      } ],
      "orbital_data" : {
        "orbit_id" : "6",
        "orbit_determination_date" : "2017-04-06 08:32:34",
        "orbit_uncertainty" : "7",
        "minimum_orbit_intersection" : ".000773153",
        "jupiter_tisserand_invariant" : "2.993",
        "epoch_osculation" : "2458000.5",
        "eccentricity" : ".6485959050261111",
        "semi_major_axis" : "2.751980217748045",
        "inclination" : "5.098626376240515",
        "ascending_node_longitude" : "315.1234203769158",
        "orbital_period" : "1667.502095784174",
        "perihelion_distance" : ".9670571178037974",
        "perihelion_argument" : "331.3677486392338",
        "aphelion_distance" : "4.536903317692293",
        "perihelion_time" : "2457220.632715734400",
        "mean_anomaly" : "168.3669382158031",
        "mean_motion" : ".2158917826311357",
        "equinox" : "J2000"
      }
    }, {
      "links" : {
        "self" : "https://api.nasa.gov/neo/rest/v1/neo/3725975?api_key=t0TVs3DtDT2H8Oy2Zy8m2eVrNsAVKAexjcZXUckd"
      },
      "neo_reference_id" : "3725975",
      "name" : "(2015 PV227)",
      "nasa_jpl_url" : "http://ssd.jpl.nasa.gov/sbdb.cgi?sstr=3725975",
      "absolute_magnitude_h" : 23.6,
      "estimated_diameter" : {
        "kilometers" : {
          "estimated_diameter_min" : 0.0506471459,
          "estimated_diameter_max" : 0.1132504611
        },
        "meters" : {
          "estimated_diameter_min" : 50.6471458835,
          "estimated_diameter_max" : 113.2504610618
        },
        "miles" : {
          "estimated_diameter_min" : 0.0314706677,
          "estimated_diameter_max" : 0.0703705522
        },
        "feet" : {
          "estimated_diameter_min" : 166.1651821003,
          "estimated_diameter_max" : 371.5566426699
        }
      },
      "is_potentially_hazardous_asteroid" : false,
      "close_approach_data" : [ {
        "close_approach_date" : "2015-08-08",
        "epoch_date_close_approach" : 1439017200000,
        "relative_velocity" : {
          "kilometers_per_second" : "5.9766310807",
          "kilometers_per_hour" : "21515.8718904261",
          "miles_per_hour" : "13369.1260643595"
        },
        "miss_distance" : {
          "astronomical" : "0.1574086194",
          "lunar" : "61.2319564819",
          "kilometers" : "23547996",
          "miles" : "14632046"
        },
        "orbiting_body" : "Earth"
      } ],
      "orbital_data" : {
        "orbit_id" : "10",
        "orbit_determination_date" : "2017-04-06 08:32:29",
        "orbit_uncertainty" : "7",
        "minimum_orbit_intersection" : ".154247",
        "jupiter_tisserand_invariant" : "3.527",
        "epoch_osculation" : "2458000.5",
        "eccentricity" : ".4630090678425966",
        "semi_major_axis" : "2.175293238901016",
        "inclination" : "8.086291405496588",
        "ascending_node_longitude" : "132.9500469643224",
        "orbital_period" : "1171.858411976068",
        "perihelion_distance" : "1.168112744073154",
        "perihelion_argument" : "183.3928050843252",
        "aphelion_distance" : "3.182473733728879",
        "perihelion_time" : "2458417.364319096548",
        "mean_anomaly" : "231.9374684338384",
        "mean_motion" : ".3072043485124994",
        "equinox" : "J2000"
      }
    }, {
      "links" : {
        "self" : "https://api.nasa.gov/neo/rest/v1/neo/3726817?api_key=t0TVs3DtDT2H8Oy2Zy8m2eVrNsAVKAexjcZXUckd"
      },
      "neo_reference_id" : "3726817",
      "name" : "(2015 RX2)",
      "nasa_jpl_url" : "http://ssd.jpl.nasa.gov/sbdb.cgi?sstr=3726817",
      "absolute_magnitude_h" : 21.7,
      "estimated_diameter" : {
        "kilometers" : {
          "estimated_diameter_min" : 0.1214940408,
          "estimated_diameter_max" : 0.2716689341
        },
        "meters" : {
          "estimated_diameter_min" : 121.4940407996,
          "estimated_diameter_max" : 271.6689340891
        },
        "miles" : {
          "estimated_diameter_min" : 0.0754928736,
          "estimated_diameter_max" : 0.1688071972
        },
        "feet" : {
          "estimated_diameter_min" : 398.6025088171,
          "estimated_diameter_max" : 891.3023057169
        }
      },
      "is_potentially_hazardous_asteroid" : false,
      "close_approach_data" : [ {
        "close_approach_date" : "2015-08-08",
        "epoch_date_close_approach" : 1439017200000,
        "relative_velocity" : {
          "kilometers_per_second" : "6.8082338025",
          "kilometers_per_hour" : "24509.6416888394",
          "miles_per_hour" : "15229.3381927125"
        },
        "miss_distance" : {
          "astronomical" : "0.1660165001",
          "lunar" : "64.5804214478",
          "kilometers" : "24835716",
          "miles" : "15432198"
        },
        "orbiting_body" : "Earth"
      } ],
      "orbital_data" : {
        "orbit_id" : "20",
        "orbit_determination_date" : "2017-04-06 08:32:09",
        "orbit_uncertainty" : "6",
        "minimum_orbit_intersection" : ".135162",
        "jupiter_tisserand_invariant" : "3.567",
        "epoch_osculation" : "2458000.5",
        "eccentricity" : ".4607282493693608",
        "semi_major_axis" : "2.131252617593685",
        "inclination" : "7.832550560128465",
        "ascending_node_longitude" : "314.7316895944061",
        "orbital_period" : "1136.451278284836",
        "perihelion_distance" : "1.149324330125879",
        "perihelion_argument" : "354.4631543101642",
        "aphelion_distance" : "3.113180905061491",
        "perihelion_time" : "2458378.079764392996",
        "mean_anomaly" : "240.3919553976602",
        "mean_motion" : ".3167755687189002",
        "equinox" : "J2000"
      }
    } ]
  }
}